[{"OBJECT_NAME":"QIANFAN-86","OBJECT_ID":"2025-046P","EPOCH":"2026-03-03T21:04:13.236672","MEAN_MOTION":13.51000881,"ECCENTRICITY":0.00092762,"INCLINATION":88.9766,"RA_OF_ASC_NODE":311.4057,"ARG_OF_PERICENTER":258.441,"MEAN_ANOMALY":101.57,"EPHEMERIS_TYPE":0,"CLASSIFICATION_TYPE":"U","NORAD_CAT_ID":63172,"ELEMENT_SET_NO":999,"REV_AT_EPOCH":5850,"BSTAR":0.00026805886,"MEAN_MOTION_DOT":1.85e-6,"MEAN_MOTION_DDOT":0},{"OBJECT_NAME":"QIANFAN-87","OBJECT_ID":"2025-046Q","EPOCH":"2026-03-03T22:09:31.676256","MEAN_MOTION":13.5100924,"ECCENTRICITY":0.00099484,"INCLINATION":88.9762,"RA_OF_ASC_NODE":311.5094,"ARG_OF_PERICENTER":252.3065,"MEAN_ANOMALY":107.7001,"EPHEMERIS_TYPE":0,"CLASSIFICATION_TYPE":"U","NORAD_CAT_ID":63173,"ELEMENT_SET_NO":999,"REV_AT_EPOCH":5844,"BSTAR":0.00027785916,"MEAN_MOTION_DOT":1.91e-6,"MEAN_MOTION_DDOT":0},{"OBJECT_NAME":"QIANFAN-88","OBJECT_ID":"2025-046R","EPOCH":"2026-03-03T22:33:00.803232","MEAN_MOTION":13.5099764,"ECCENTRICITY":0.00103596,"INCLINATION":88.9764,"RA_OF_ASC_NODE":311.4644,"ARG_OF_PERICENTER":261.9575,"MEAN_ANOMALY":98.04,"EPHEMERIS_TYPE":0,"CLASSIFICATION_TYPE":"U","NORAD_CAT_ID":63174,"ELEMENT_SET_NO":999,"REV_AT_EPOCH":5847,"BSTAR":0.00029849901,"MEAN_MOTION_DOT":2.05e-6,"MEAN_MOTION_DDOT":0},{"OBJECT_NAME":"QIANFAN-89","OBJECT_ID":"2025-046S","EPOCH":"2026-03-03T23:26:35.008512","MEAN_MOTION":13.51008197,"ECCENTRICITY":0.00148235,"INCLINATION":88.9765,"RA_OF_ASC_NODE":311.6497,"ARG_OF_PERICENTER":250.7751,"MEAN_ANOMALY":109.1797,"EPHEMERIS_TYPE":0,"CLASSIFICATION_TYPE":"U","NORAD_CAT_ID":63175,"ELEMENT_SET_NO":999,"REV_AT_EPOCH":5837,"BSTAR":0.00028769858,"MEAN_MOTION_DOT":1.98e-6,"MEAN_MOTION_DDOT":0},{"OBJECT_NAME":"QIANFAN-90","OBJECT_ID":"2025-046T","EPOCH":"2026-03-03T22:21:27.350784","MEAN_MOTION":13.51008012,"ECCENTRICITY":0.00117734,"INCLINATION":88.9765,"RA_OF_ASC_NODE":311.6268,"ARG_OF_PERICENTER":249.011,"MEAN_ANOMALY":110.9782,"EPHEMERIS_TYPE":0,"CLASSIFICATION_TYPE":"U","NORAD_CAT_ID":63176,"ELEMENT_SET_NO":999,"REV_AT_EPOCH":5838,"BSTAR":0.00032434,"MEAN_MOTION_DOT":2.21e-6,"MEAN_MOTION_DDOT":0},{"OBJECT_NAME":"QIANFAN-91","OBJECT_ID":"2025-233A","EPOCH":"2026-03-03T21:21:39.343680","MEAN_MOTION":13.51004461,"ECCENTRICITY":0.00019135,"INCLINATION":88.9926,"RA_OF_ASC_NODE":53.837,"ARG_OF_PERICENTER":92.8273,"MEAN_ANOMALY":267.3097,"EPHEMERIS_TYPE":0,"CLASSIFICATION_TYPE":"U","NORAD_CAT_ID":66033,"ELEMENT_SET_NO":999,"REV_AT_EPOCH":1896,"BSTAR":6.1280531e-5,"MEAN_MOTION_DOT":5.2e-7,"MEAN_MOTION_DDOT":0},{"OBJECT_NAME":"QIANFAN-92","OBJECT_ID":"2025-233B","EPOCH":"2026-03-03T21:33:25.102080","MEAN_MOTION":13.51005902,"ECCENTRICITY":0.00019442,"INCLINATION":88.991,"RA_OF_ASC_NODE":53.8251,"ARG_OF_PERICENTER":86.1125,"MEAN_ANOMALY":274.0248,"EPHEMERIS_TYPE":0,"CLASSIFICATION_TYPE":"U","NORAD_CAT_ID":66034,"ELEMENT_SET_NO":999,"REV_AT_EPOCH":1896,"BSTAR":8.4907423e-5,"MEAN_MOTION_DOT":6.7e-7,"MEAN_MOTION_DDOT":0},{"OBJECT_NAME":"QIANFAN-93","OBJECT_ID":"2025-233C","EPOCH":"2026-03-03T23:31:55.358976","MEAN_MOTION":13.51004813,"ECCENTRICITY":0.00018989,"INCLINATION":88.9937,"RA_OF_ASC_NODE":53.8401,"ARG_OF_PERICENTER":90.8897,"MEAN_ANOMALY":269.2472,"EPHEMERIS_TYPE":0,"CLASSIFICATION_TYPE":"U","NORAD_CAT_ID":66035,"ELEMENT_SET_NO":999,"REV_AT_EPOCH":1897,"BSTAR":2.1025673e-5,"MEAN_MOTION_DOT":2.6e-7,"MEAN_MOTION_DDOT":0},{"OBJECT_NAME":"QIANFAN-94","OBJECT_ID":"2025-233D","EPOCH":"2026-03-03T23:13:53.792544","MEAN_MOTION":13.5099182,"ECCENTRICITY":0.00020387,"INCLINATION":88.9934,"RA_OF_ASC_NODE":53.7482,"ARG_OF_PERICENTER":88.4931,"MEAN_ANOMALY":271.6454,"EPHEMERIS_TYPE":0,"CLASSIFICATION_TYPE":"U","NORAD_CAT_ID":66036,"ELEMENT_SET_NO":999,"REV_AT_EPOCH":1902,"BSTAR":3.1409638e-5,"MEAN_MOTION_DOT":3.2e-7,"MEAN_MOTION_DDOT":0},{"OBJECT_NAME":"QIANFAN-95","OBJECT_ID":"2025-233E","EPOCH":"2026-03-03T21:39:10.495584","MEAN_MOTION":13.51015287,"ECCENTRICITY":0.00020313,"INCLINATION":88.9932,"RA_OF_ASC_NODE":53.3012,"ARG_OF_PERICENTER":93.9787,"MEAN_ANOMALY":266.1596,"EPHEMERIS_TYPE":0,"CLASSIFICATION_TYPE":"U","NORAD_CAT_ID":66037,"ELEMENT_SET_NO":999,"REV_AT_EPOCH":1926,"BSTAR":8.4412019e-5,"MEAN_MOTION_DOT":6.7e-7,"MEAN_MOTION_DDOT":0},{"OBJECT_NAME":"QIANFAN-96","OBJECT_ID":"2025-233F","EPOCH":"2026-03-03T22:14:57.712704","MEAN_MOTION":13.51004596,"ECCENTRICITY":0.00019204,"INCLINATION":88.9929,"RA_OF_ASC_NODE":53.8447,"ARG_OF_PERICENTER":94.7847,"MEAN_ANOMALY":265.3524,"EPHEMERIS_TYPE":0,"CLASSIFICATION_TYPE":"U","NORAD_CAT_ID":66038,"ELEMENT_SET_NO":999,"REV_AT_EPOCH":1896,"BSTAR":4.4135047e-5,"MEAN_MOTION_DOT":4.1e-7,"MEAN_MOTION_DDOT":0},{"OBJECT_NAME":"QIANFAN-97","OBJECT_ID":"2025-233G","EPOCH":"2026-03-03T21:51:14.429952","MEAN_MOTION":13.51004016,"ECCENTRICITY":0.00019251,"INCLINATION":88.9932,"RA_OF_ASC_NODE":53.827,"ARG_OF_PERICENTER":92.152,"MEAN_ANOMALY":267.9852,"EPHEMERIS_TYPE":0,"CLASSIFICATION_TYPE":"U","NORAD_CAT_ID":66039,"ELEMENT_SET_NO":999,"REV_AT_EPOCH":1897,"BSTAR":2.1787311e-5,"MEAN_MOTION_DOT":2.6e-7,"MEAN_MOTION_DDOT":0},{"OBJECT_NAME":"QIANFAN-98","OBJECT_ID":"2025-233H","EPOCH":"2026-03-03T22:03:00.959904","MEAN_MOTION":13.51004471,"ECCENTRICITY":0.00024467,"INCLINATION":88.9921,"RA_OF_ASC_NODE":53.5685,"ARG_OF_PERICENTER":86.2379,"MEAN_ANOMALY":273.9052,"EPHEMERIS_TYPE":0,"CLASSIFICATION_TYPE":"U","NORAD_CAT_ID":66040,"ELEMENT_SET_NO":999,"REV_AT_EPOCH":1911,"BSTAR":4.6511036e-5,"MEAN_MOTION_DOT":4.2e-7,"MEAN_MOTION_DDOT":0},{"OBJECT_NAME":"QIANFAN-99","OBJECT_ID":"2025-233J","EPOCH":"2026-03-03T22:09:00.576576","MEAN_MOTION":13.51004767,"ECCENTRICITY":0.00023208,"INCLINATION":88.9932,"RA_OF_ASC_NODE":53.8291,"ARG_OF_PERICENTER":90.1074,"MEAN_ANOMALY":270.0343,"EPHEMERIS_TYPE":0,"CLASSIFICATION_TYPE":"U","NORAD_CAT_ID":66041,"ELEMENT_SET_NO":999,"REV_AT_EPOCH":1897,"BSTAR":4.6682532e-5,"MEAN_MOTION_DOT":4.2e-7,"MEAN_MOTION_DDOT":0},{"OBJECT_NAME":"QIANFAN-100","OBJECT_ID":"2025-233K","EPOCH":"2026-03-03T23:43:46.245216","MEAN_MOTION":13.51005588,"ECCENTRICITY":0.00019042,"INCLINATION":88.9944,"RA_OF_ASC_NODE":53.7376,"ARG_OF_PERICENTER":91.5293,"MEAN_ANOMALY":268.6076,"EPHEMERIS_TYPE":0,"CLASSIFICATION_TYPE":"U","NORAD_CAT_ID":66042,"ELEMENT_SET_NO":999,"REV_AT_EPOCH":1903,"BSTAR":7.7666224e-5,"MEAN_MOTION_DOT":6.2e-7,"MEAN_MOTION_DDOT":0},{"OBJECT_NAME":"QIANFAN-101","OBJECT_ID":"2025-233L","EPOCH":"2026-03-03T21:13:37.764768","MEAN_MOTION":14.26732282,"ECCENTRICITY":0.00167349,"INCLINATION":88.9933,"RA_OF_ASC_NODE":52.6543,"ARG_OF_PERICENTER":124.0162,"MEAN_ANOMALY":236.2624,"EPHEMERIS_TYPE":0,"CLASSIFICATION_TYPE":"U","NORAD_CAT_ID":66043,"ELEMENT_SET_NO":999,"REV_AT_EPOCH":1961,"BSTAR":0.00028769635,"MEAN_MOTION_DOT":7.11e-6,"MEAN_MOTION_DDOT":0},{"OBJECT_NAME":"QIANFAN-102","OBJECT_ID":"2025-233M","EPOCH":"2026-03-03T22:26:32.051616","MEAN_MOTION":13.50992385,"ECCENTRICITY":0.00020834,"INCLINATION":88.993,"RA_OF_ASC_NODE":53.7399,"ARG_OF_PERICENTER":88.9834,"MEAN_ANOMALY":271.1556,"EPHEMERIS_TYPE":0,"CLASSIFICATION_TYPE":"U","NORAD_CAT_ID":66044,"ELEMENT_SET_NO":999,"REV_AT_EPOCH":1902,"BSTAR":4.336572e-5,"MEAN_MOTION_DOT":4.0e-7,"MEAN_MOTION_DDOT":0}]
