QIANFAN-86              
1 63172U 25046P   26062.87793098  .00000185  00000+0  26806-3 0  9991
2 63172  88.9766 311.4057 0009276 258.4410 101.5700 13.51000881 58503
QIANFAN-87              
1 63173U 25046Q   26062.92328329  .00000191  00000+0  27786-3 0  9994
2 63173  88.9762 311.5094 0009948 252.3065 107.7001 13.51009240 58440
QIANFAN-88              
1 63174U 25046R   26062.93959263  .00000205  00000+0  29850-3 0  9993
2 63174  88.9764 311.4644 0010359 261.9575  98.0400 13.50997640 58470
QIANFAN-89              
1 63175U 25046S   26062.97679408  .00000198  00000+0  28770-3 0  9999
2 63175  88.9765 311.6497 0014823 250.7751 109.1797 13.51008197 58375
QIANFAN-90              
1 63176U 25046T   26062.93156656  .00000221  00000+0  32434-3 0  9990
2 63176  88.9765 311.6268 0011773 249.0110 110.9782 13.51008012 58384
QIANFAN-91              
1 66033U 25233A   26062.89003870  .00000052  00000+0  61281-4 0  9992
2 66033  88.9926  53.8370 0001913  92.8273 267.3097 13.51004461 18966
QIANFAN-92              
1 66034U 25233B   26062.89820720  .00000067  00000+0  84907-4 0  9990
2 66034  88.9910  53.8251 0001944  86.1125 274.0248 13.51005902 18968
QIANFAN-93              
1 66035U 25233C   26062.98050184  .00000026  00000+0  21026-4 0  9998
2 66035  88.9937  53.8401 0001898  90.8897 269.2472 13.51004813 18977
QIANFAN-94              
1 66036U 25233D   26062.96798371  .00000032  00000+0  31410-4 0  9999
2 66036  88.9934  53.7482 0002038  88.4931 271.6454 13.50991820 19028
QIANFAN-95              
1 66037U 25233E   26062.90220481  .00000067  00000+0  84412-4 0  9994
2 66037  88.9932  53.3012 0002031  93.9787 266.1596 13.51015287 19262
QIANFAN-96              
1 66038U 25233F   26062.92705686  .00000041  00000+0  44135-4 0  9992
2 66038  88.9929  53.8447 0001920  94.7847 265.3524 13.51004596 18967
QIANFAN-97              
1 66039U 25233G   26062.91058368  .00000026  00000+0  21787-4 0  9991
2 66039  88.9932  53.8270 0001925  92.1520 267.9852 13.51004016 18971
QIANFAN-98              
1 66040U 25233H   26062.91876111  .00000042  00000+0  46511-4 0  9997
2 66040  88.9921  53.5685 0002446  86.2379 273.9052 13.51004471 19114
QIANFAN-99              
1 66041U 25233J   26062.92292334  .00000042  00000+0  46683-4 0  9998
2 66041  88.9932  53.8291 0002320  90.1074 270.0343 13.51004767 18972
QIANFAN-100             
1 66042U 25233K   26062.98872969  .00000062  00000+0  77666-4 0  9990
2 66042  88.9944  53.7376 0001904  91.5293 268.6076 13.51005588 19030
QIANFAN-101             
1 66043U 25233L   26062.88446487  .00000711  00000+0  28770-3 0  9994
2 66043  88.9933  52.6543 0016734 124.0162 236.2624 14.26732282 19612
QIANFAN-102             
1 66044U 25233M   26062.93509319  .00000040  00000+0  43366-4 0  9999
2 66044  88.9930  53.7399 0002083  88.9834 271.1556 13.50992385 19022
